start=new Date('2023-04-22T00:00:00.000Z').valueOf();
sats=[{"TLE_LINE1":"1 55342U 23013M   23112.00002315  .00014748  00000-0  11047-2 0  9997","COUNTRY_CODE":"US","GP_ID":"230531308","SEMIMAJOR_AXIS":"6937.236","CLASSIFICATION_TYPE":"U","ECCENTRICITY":"0.00017340","INCLINATION":"43.0006","ARG_OF_PERICENTER":"269.1680","PERIOD":"95.838","MEAN_MOTION_DOT":"0.00014748","LAUNCH_DATE":"2023-01-26","CENTER_NAME":"EARTH","RCS_SIZE":"LARGE","MEAN_ELEMENT_THEORY":"SGP4","DECAY_DATE":null,"OBJECT_NAME":"STARLINK-5657","OBJECT_TYPE":"PAYLOAD","REV_AT_EPOCH":"130","EPHEMERIS_TYPE":"0","OBJECT_ID":"2023-013M","PERIAPSIS":"557.898","TLE_LINE2":"2 55342  43.0006 260.4932 0001734 269.1680 173.2025 15.02529619  1301","RA_OF_ASC_NODE":"260.4932","MEAN_ANOMALY":"173.2025","SITE":"AFETR","REF_FRAME":"TEME","BSTAR":"0.00110470000000","ELEMENT_SET_NO":"999","EPOCH":"2023-04-22T00:00:02.000160","NORAD_CAT_ID":"55342","MEAN_MOTION":"15.02529619","MEAN_MOTION_DDOT":"0.0000000000000","FILE":"3891716","APOAPSIS":"560.304","TIME_SYSTEM":"UTC"},{"ELEMENT_SET_NO":"999","BSTAR":"0.00118740000000","NORAD_CAT_ID":"55343","EPOCH":"2023-04-22T00:00:02.000160","REF_FRAME":"TEME","SITE":"AFETR","MEAN_ANOMALY":"203.3776","RA_OF_ASC_NODE":"260.4196","TIME_SYSTEM":"UTC","MEAN_MOTION_DDOT":"0.0000000000000","APOAPSIS":"560.463","FILE":"3891716","MEAN_MOTION":"15.02529710","RCS_SIZE":"LARGE","PERIOD":"95.838","MEAN_MOTION_DOT":"0.00015870","CENTER_NAME":"EARTH","LAUNCH_DATE":"2023-01-26","ECCENTRICITY":"0.00019630","ARG_OF_PERICENTER":"269.0420","INCLINATION":"43.0004","TLE_LINE1":"1 55343U 23013N   23112.00002315  .00015870  00000-0  11874-2 0  9993","SEMIMAJOR_AXIS":"6937.236","GP_ID":"230531560","COUNTRY_CODE":"US","CLASSIFICATION_TYPE":"U","PERIAPSIS":"557.739","TLE_LINE2":"2 55343  43.0004 260.4196 0001963 269.0420 203.3776 15.02529710  1307","OBJECT_ID":"2023-013N","REV_AT_EPOCH":"130","EPHEMERIS_TYPE":"0","DECAY_DATE":null,"MEAN_ELEMENT_THEORY":"SGP4","OBJECT_NAME":"STARLINK-5661","OBJECT_TYPE":"PAYLOAD"},{"FILE":"3891716","APOAPSIS":"560.270","MEAN_MOTION_DDOT":"0.0000000000000","TIME_SYSTEM":"UTC","MEAN_MOTION":"15.02533124","SITE":"AFETR","REF_FRAME":"TEME","EPOCH":"2023-04-22T00:00:02.000160","NORAD_CAT_ID":"55344","BSTAR":"0.00112580000000","ELEMENT_SET_NO":"999","RA_OF_ASC_NODE":"260.4509","MEAN_ANOMALY":"186.6850","OBJECT_ID":"2023-013P","TLE_LINE2":"2 55344  43.0009 260.4509 0001700 273.7078 186.6850 15.02533124  1301","PERIAPSIS":"557.911","OBJECT_NAME":"STARLINK-5662","OBJECT_TYPE":"PAYLOAD","DECAY_DATE":null,"MEAN_ELEMENT_THEORY":"SGP4","EPHEMERIS_TYPE":"0","REV_AT_EPOCH":"130","LAUNCH_DATE":"2023-01-26","CENTER_NAME":"EARTH","MEAN_MOTION_DOT":"0.00015036","PERIOD":"95.838","RCS_SIZE":"LARGE","CLASSIFICATION_TYPE":"U","TLE_LINE1":"1 55344U 23013P   23112.00002315  .00015036  00000-0  11258-2 0  9994","SEMIMAJOR_AXIS":"6937.225","GP_ID":"230530313","COUNTRY_CODE":"US","ECCENTRICITY":"0.00017000","INCLINATION":"43.0009","ARG_OF_PERICENTER":"273.7078"},{"RCS_SIZE":"LARGE","LAUNCH_DATE":"2023-01-26","CENTER_NAME":"EARTH","PERIOD":"93.763","MEAN_MOTION_DOT":"-0.00959374","ECCENTRICITY":"0.00014480","ARG_OF_PERICENTER":"278.3777","INCLINATION":"42.9997","CLASSIFICATION_TYPE":"U","TLE_LINE1":"1 55345U 23013Q   23112.00002315 -.00959374  00000-0 -29523-1 0  9992","COUNTRY_CODE":"US","GP_ID":"230531059","SEMIMAJOR_AXIS":"6836.705","TLE_LINE2":"2 55345  42.9997 249.9665 0001448 278.3777 184.8427 15.35792324  1302","PERIAPSIS":"457.580","OBJECT_ID":"2023-013Q","EPHEMERIS_TYPE":"0","REV_AT_EPOCH":"130","OBJECT_TYPE":"PAYLOAD","OBJECT_NAME":"STARLINK-5653","DECAY_DATE":null,"MEAN_ELEMENT_THEORY":"SGP4","NORAD_CAT_ID":"55345","EPOCH":"2023-04-22T00:00:02.000160","ELEMENT_SET_NO":"999","BSTAR":"-0.02952300000000","REF_FRAME":"TEME","SITE":"AFETR","MEAN_ANOMALY":"184.8427","RA_OF_ASC_NODE":"249.9665","TIME_SYSTEM":"UTC","APOAPSIS":"459.560","FILE":"3891716","MEAN_MOTION_DDOT":"0.0000000000000","MEAN_MOTION":"15.35792324"},{"MEAN_MOTION":"15.02527209","MEAN_MOTION_DDOT":"0.0000000000000","APOAPSIS":"560.352","FILE":"3891716","TIME_SYSTEM":"UTC","RA_OF_ASC_NODE":"260.3770","MEAN_ANOMALY":"213.5729","REF_FRAME":"TEME","SITE":"AFETR","ELEMENT_SET_NO":"999","BSTAR":"0.00089921000000","NORAD_CAT_ID":"55346","EPOCH":"2023-04-22T00:00:02.000160","DECAY_DATE":null,"MEAN_ELEMENT_THEORY":"SGP4","OBJECT_TYPE":"PAYLOAD","OBJECT_NAME":"STARLINK-5631","REV_AT_EPOCH":"130","EPHEMERIS_TYPE":"0","OBJECT_ID":"2023-013R","PERIAPSIS":"557.865","TLE_LINE2":"2 55346  43.0004 260.3770 0001793 276.8788 213.5729 15.02527209  1303","GP_ID":"230531809","TLE_LINE1":"1 55346U 23013R   23112.00002315  .00011961  00000-0  89921-3 0  9992","COUNTRY_CODE":"US","SEMIMAJOR_AXIS":"6937.244","CLASSIFICATION_TYPE":"U","INCLINATION":"43.0004","ARG_OF_PERICENTER":"276.8788","ECCENTRICITY":"0.00017930","PERIOD":"95.839","MEAN_MOTION_DOT":"0.00011961","LAUNCH_DATE":"2023-01-26","CENTER_NAME":"EARTH","RCS_SIZE":"LARGE"},{"MEAN_MOTION":"15.02533241","FILE":"3891716","APOAPSIS":"559.997","MEAN_MOTION_DDOT":"0.0000000000000","TIME_SYSTEM":"UTC","RA_OF_ASC_NODE":"260.2478","MEAN_ANOMALY":"260.6825","SITE":"AFETR","REF_FRAME":"TEME","EPOCH":"2023-04-22T00:00:02.000160","NORAD_CAT_ID":"55347","BSTAR":"0.00110340000000","ELEMENT_SET_NO":"999","OBJECT_TYPE":"PAYLOAD","OBJECT_NAME":"STARLINK-5663","DECAY_DATE":null,"MEAN_ELEMENT_THEORY":"SGP4","EPHEMERIS_TYPE":"0","REV_AT_EPOCH":"130","OBJECT_ID":"2023-013S","TLE_LINE2":"2 55347  43.0006 260.2478 0001307 283.8541 260.6825 15.02533241  1309","PERIAPSIS":"558.183","CLASSIFICATION_TYPE":"U","GP_ID":"230532061","TLE_LINE1":"1 55347U 23013S   23112.00002315  .00014732  00000-0  11034-2 0  9991","SEMIMAJOR_AXIS":"6937.225","COUNTRY_CODE":"US","INCLINATION":"43.0006","ARG_OF_PERICENTER":"283.8541","ECCENTRICITY":"0.00013070","LAUNCH_DATE":"2023-01-26","CENTER_NAME":"EARTH","PERIOD":"95.838","MEAN_MOTION_DOT":"0.00014732","RCS_SIZE":"LARGE"},{"MEAN_ANOMALY":"225.6356","RA_OF_ASC_NODE":"260.3478","EPOCH":"2023-04-22T00:00:02.000160","NORAD_CAT_ID":"55348","BSTAR":"0.00096128000000","ELEMENT_SET_NO":"999","SITE":"AFETR","REF_FRAME":"TEME","MEAN_MOTION":"15.02523117","TIME_SYSTEM":"UTC","FILE":"3891716","APOAPSIS":"560.512","MEAN_MOTION_DDOT":"0.0000000000000","ECCENTRICITY":"0.00020050","ARG_OF_PERICENTER":"276.8435","INCLINATION":"43.0005","CLASSIFICATION_TYPE":"U","COUNTRY_CODE":"US","TLE_LINE1":"1 55348U 23013T   23112.00002315  .00012801  00000-0  96128-3 0  9995","GP_ID":"230530814","SEMIMAJOR_AXIS":"6937.256","RCS_SIZE":"LARGE","CENTER_NAME":"EARTH","LAUNCH_DATE":"2023-01-26","MEAN_MOTION_DOT":"0.00012801","PERIOD":"95.839","EPHEMERIS_TYPE":"0","REV_AT_EPOCH":"130","OBJECT_TYPE":"PAYLOAD","OBJECT_NAME":"STARLINK-5609","DECAY_DATE":null,"MEAN_ELEMENT_THEORY":"SGP4","TLE_LINE2":"2 55348  43.0005 260.3478 0002005 276.8435 225.6356 15.02523117  1301","PERIAPSIS":"557.730","OBJECT_ID":"2023-013T"},{"FILE":"3891716","APOAPSIS":"560.231","MEAN_MOTION_DDOT":"0.0000000000000","TIME_SYSTEM":"UTC","MEAN_MOTION":"15.02522382","SITE":"AFETR","REF_FRAME":"TEME","EPOCH":"2023-04-22T00:00:02.000160","NORAD_CAT_ID":"55349","BSTAR":"0.00103270000000","ELEMENT_SET_NO":"999","RA_OF_ASC_NODE":"260.3193","MEAN_ANOMALY":"238.9240","OBJECT_ID":"2023-013U","TLE_LINE2":"2 55349  43.0007 260.3193 0001597 275.5783 238.9240 15.02522382  1307","PERIAPSIS":"558.016","OBJECT_TYPE":"PAYLOAD","OBJECT_NAME":"STARLINK-5666","DECAY_DATE":null,"MEAN_ELEMENT_THEORY":"SGP4","EPHEMERIS_TYPE":"0","REV_AT_EPOCH":"130","LAUNCH_DATE":"2023-01-26","CENTER_NAME":"EARTH","MEAN_MOTION_DOT":"0.00013769","PERIOD":"95.839","RCS_SIZE":"LARGE","CLASSIFICATION_TYPE":"U","GP_ID":"230530559","TLE_LINE1":"1 55349U 23013U   23112.00002315  .00013769  00000-0  10327-2 0  9996","COUNTRY_CODE":"US","SEMIMAJOR_AXIS":"6937.258","INCLINATION":"43.0007","ARG_OF_PERICENTER":"275.5783","ECCENTRICITY":"0.00015970"},{"OBJECT_TYPE":"PAYLOAD","OBJECT_NAME":"STARLINK-5668","DECAY_DATE":null,"MEAN_ELEMENT_THEORY":"SGP4","EPHEMERIS_TYPE":"0","REV_AT_EPOCH":"130","OBJECT_ID":"2023-013V","TLE_LINE2":"2 55350  43.0005 260.2778 0001706 274.4437 258.0753 15.02531710  1308","PERIAPSIS":"557.911","CLASSIFICATION_TYPE":"U","TLE_LINE1":"1 55350U 23013V   23112.00002315  .00015913  00000-0  11905-2 0  9994","SEMIMAJOR_AXIS":"6937.230","GP_ID":"230531309","COUNTRY_CODE":"US","ARG_OF_PERICENTER":"274.4437","ECCENTRICITY":"0.00017060","INCLINATION":"43.0005","CENTER_NAME":"EARTH","LAUNCH_DATE":"2023-01-26","MEAN_MOTION_DOT":"0.00015913","PERIOD":"95.838","RCS_SIZE":"LARGE","MEAN_MOTION":"15.02531710","APOAPSIS":"560.278","FILE":"3891716","MEAN_MOTION_DDOT":"0.0000000000000","TIME_SYSTEM":"UTC","RA_OF_ASC_NODE":"260.2778","MEAN_ANOMALY":"258.0753","REF_FRAME":"TEME","SITE":"AFETR","NORAD_CAT_ID":"55350","EPOCH":"2023-04-22T00:00:02.000160","ELEMENT_SET_NO":"999","BSTAR":"0.00119050000000"},{"MEAN_MOTION":"15.02525370","MEAN_MOTION_DDOT":"0.0000000000000","APOAPSIS":"560.467","FILE":"3891716","TIME_SYSTEM":"UTC","RA_OF_ASC_NODE":"260.1459","MEAN_ANOMALY":"309.8319","REF_FRAME":"TEME","SITE":"AFETR","ELEMENT_SET_NO":"999","BSTAR":"0.00090742000000","NORAD_CAT_ID":"55351","EPOCH":"2023-04-22T00:00:02.000160","DECAY_DATE":null,"MEAN_ELEMENT_THEORY":"SGP4","OBJECT_NAME":"STARLINK-5659","OBJECT_TYPE":"PAYLOAD","REV_AT_EPOCH":"130","EPHEMERIS_TYPE":"0","OBJECT_ID":"2023-013W","PERIAPSIS":"557.761","TLE_LINE2":"2 55351  43.0009 260.1459 0001950 276.7958 309.8319 15.02525370  1300","TLE_LINE1":"1 55351U 23013W   23112.00002315  .00012072  00000-0  90742-3 0  9995","SEMIMAJOR_AXIS":"6937.249","GP_ID":"230531561","COUNTRY_CODE":"US","CLASSIFICATION_TYPE":"U","INCLINATION":"43.0009","ECCENTRICITY":"0.00019500","ARG_OF_PERICENTER":"276.7958","MEAN_MOTION_DOT":"0.00012072","PERIOD":"95.839","CENTER_NAME":"EARTH","LAUNCH_DATE":"2023-01-26","RCS_SIZE":"LARGE"}];
